{"type": "FeatureCollection", "features": [ {"type": "Feature", "properties": {"norad_id": 30196, "name": "FENGYUN 1C DEB", "group": "fengyun-1c-debris", "lat": -51.69893352057636, "lon": 87.4515276630533, "alt_km": 847.0714995494354, "timestamp": "2025-12-09T20:37:09.561615+00:00", "meta": {"OBJECT_NAME": "FENGYUN 1C DEB", "OBJECT_ID": "1999-025VD", "EPOCH": "2025-12-09T12:31:59.786400", "MEAN_MOTION": 14.25846457, "ECCENTRICITY": 0.00870191, "INCLINATION": 98.6404, "RA_OF_ASC_NODE": 76.0191, "ARG_OF_PERICENTER": 72.4334, "MEAN_ANOMALY": 307.4962, "EPHEMERIS_TYPE": 0, "CLASSIFICATION_TYPE": "U", "NORAD_CAT_ID": 30196, "ELEMENT_SET_NO": 999, "REV_AT_EPOCH": 98319, "BSTAR": 0.00010915873, "MEAN_MOTION_DOT": 2.27e-06, "MEAN_MOTION_DDOT": 0}, "tle": {"line1": "1 30196U 99025VD  25343.52221975  .00000227  00000+0  10916-3 0  9994", "line2": "2 30196  98.6404  76.0191 0087019  72.4334 307.4962 14.25846457983191"}}, "geometry": {"type": "Point", "coordinates": [87.4515276630533, -51.69893352057636]}}, {"type": "Feature", "properties": {"norad_id": 30197, "name": "FENGYUN 1C DEB", "group": "fengyun-1c-debris", "lat": 35.04047069148398, "lon": -97.23125410726875, "alt_km": 805.7827485096668, "timestamp": "2025-12-09T20:37:09.561626+00:00", "meta": {"OBJECT_NAME": "FENGYUN 1C DEB", "OBJECT_ID": "1999-025VE", "EPOCH": "2025-12-09T14:21:35.352576", "MEAN_MOTION": 14.37170092, "ECCENTRICITY": 0.00569096, "INCLINATION": 98.9381, "RA_OF_ASC_NODE": 268.8342, "ARG_OF_PERICENTER": 224.0774, "MEAN_ANOMALY": 262.8329, "EPHEMERIS_TYPE": 0, "CLASSIFICATION_TYPE": "U", "NORAD_CAT_ID": 30197, "ELEMENT_SET_NO": 999, "REV_AT_EPOCH": 98441, "BSTAR": 0.0013406597, "MEAN_MOTION_DOT": 4.017e-05, "MEAN_MOTION_DDOT": 0}, "tle": {"line1": "1 30197U 99025VE  25343.59832584  .00004017  00000+0  13407-2 0  9994", "line2": "2 30197  98.9381 268.8342 0056909 224.0774 262.8329 14.37170092984410"}}, "geometry": {"type": "Point", "coordinates": [-97.23125410726875, 35.04047069148398]}}, {"type": "Feature", "properties": {"norad_id": 30198, "name": "FENGYUN 1C DEB", "group": "fengyun-1c-debris", "lat": -32.382339939565014, "lon": -70.51790129270304, "alt_km": 655.18600736405, "timestamp": "2025-12-09T20:37:09.561636+00:00", "meta": {"OBJECT_NAME": "FENGYUN 1C DEB", "OBJECT_ID": "1999-025VF", "EPOCH": "2025-12-09T08:18:17.354880", "MEAN_MOTION": 14.50260839, "ECCENTRICITY": 0.01070031, "INCLINATION": 98.4487, "RA_OF_ASC_NODE": 114.3762, "ARG_OF_PERICENTER": 208.6305, "MEAN_ANOMALY": 206.593, "EPHEMERIS_TYPE": 0, "CLASSIFICATION_TYPE": "U", "NORAD_CAT_ID": 30198, "ELEMENT_SET_NO": 999, "REV_AT_EPOCH": 98458, "BSTAR": 0.0030324328, "MEAN_MOTION_DOT": 0.00012681, "MEAN_MOTION_DDOT": 0}, "tle": {"line1": "1 30198U 99025VF  25343.34603420  .00012681  00000+0  30324-2 0  9996", "line2": "2 30198  98.4487 114.3762 0107003 208.6305 206.5930 14.50260839984589"}}, "geometry": {"type": "Point", "coordinates": [-70.51790129270304, -32.382339939565014]}}, {"type": "Feature", "properties": {"norad_id": 30199, "name": "FENGYUN 1C DEB", "group": "fengyun-1c-debris", "lat": -7.144773258483481, "lon": 8.715246844159495, "alt_km": 721.927706356295, "timestamp": "2025-12-09T20:37:09.561648+00:00", "meta": {"OBJECT_NAME": "FENGYUN 1C DEB", "OBJECT_ID": "1999-025VG", "EPOCH": "2025-12-09T13:01:19.398432", "MEAN_MOTION": 14.38484454, "ECCENTRICITY": 0.00778157, "INCLINATION": 98.3855, "RA_OF_ASC_NODE": 7.3466, "ARG_OF_PERICENTER": 318.3636, "MEAN_ANOMALY": 195.6828, "EPHEMERIS_TYPE": 0, "CLASSIFICATION_TYPE": "U", "NORAD_CAT_ID": 30199, "ELEMENT_SET_NO": 999, "REV_AT_EPOCH": 98364, "BSTAR": 0.0015402499, "MEAN_MOTION_DOT": 4.831e-05, "MEAN_MOTION_DDOT": 0}, "tle": {"line1": "1 30199U 99025VG  25343.54258563  .00004831  00000+0  15402-2 0  9991", "line2": "2 30199  98.3855   7.3466 0077815 318.3636 195.6828 14.38484454983640"}}, "geometry": {"type": "Point", "coordinates": [8.715246844159495, -7.144773258483481]}}, {"type": "Feature", "properties": {"norad_id": 30200, "name": "FENGYUN 1C DEB", "group": "fengyun-1c-debris", "lat": 45.161441896700765, "lon": 7.805019613572649, "alt_km": 718.4474254211791, "timestamp": "2025-12-09T20:37:09.561658+00:00", "meta": {"OBJECT_NAME": "FENGYUN 1C DEB", "OBJECT_ID": "1999-025VH", "EPOCH": "2025-12-09T11:33:37.737792", "MEAN_MOTION": 14.2227326, "ECCENTRICITY": 0.01475499, "INCLINATION": 99.113, "RA_OF_ASC_NODE": 178.1258, "ARG_OF_PERICENTER": 108.5285, "MEAN_ANOMALY": 253.1987, "EPHEMERIS_TYPE": 0, "CLASSIFICATION_TYPE": "U", "NORAD_CAT_ID": 30200, "ELEMENT_SET_NO": 999, "REV_AT_EPOCH": 97936, "BSTAR": 0.00024982419, "MEAN_MOTION_DOT": 5.74e-06, "MEAN_MOTION_DDOT": 0}, "tle": {"line1": "1 30200U 99025VH  25343.48168678  .00000574  00000+0  24982-3 0  9998", "line2": "2 30200  99.1130 178.1258 0147549 108.5285 253.1987 14.22273260979369"}}, "geometry": {"type": "Point", "coordinates": [7.805019613572649, 45.161441896700765]}}, {"type": "Feature", "properties": {"norad_id": 30201, "name": "FENGYUN 1C DEB", "group": "fengyun-1c-debris", "lat": 36.489699455637854, "lon": 110.8416795057387, "alt_km": 807.7707837247854, "timestamp": "2025-12-09T20:37:09.561669+00:00", "meta": {"OBJECT_NAME": "FENGYUN 1C DEB", "OBJECT_ID": "1999-025VJ", "EPOCH": "2025-12-09T08:37:59.197152", "MEAN_MOTION": 14.22931789, "ECCENTRICITY": 0.00287734, "INCLINATION": 99.401, "RA_OF_ASC_NODE": 117.348, "ARG_OF_PERICENTER": 322.5146, "MEAN_ANOMALY": 37.4023, "EPHEMERIS_TYPE": 0, "CLASSIFICATION_TYPE": "U", "NORAD_CAT_ID": 30201, "ELEMENT_SET_NO": 999, "REV_AT_EPOCH": 97779, "BSTAR": 0.00077733744, "MEAN_MOTION_DOT": 1.706e-05, "MEAN_MOTION_DDOT": 0}, "tle": {"line1": "1 30201U 99025VJ  25343.35971293  .00001706  00000+0  77734-3 0  9991", "line2": "2 30201  99.4010 117.3480 0028773 322.5146  37.4023 14.22931789977799"}}, "geometry": {"type": "Point", "coordinates": [110.8416795057387, 36.489699455637854]}}, {"type": "Feature", "properties": {"norad_id": 30202, "name": "FENGYUN 1C DEB", "group": "fengyun-1c-debris", "lat": 69.90559710729643, "lon": 56.50590075111597, "alt_km": 683.6906757864372, "timestamp": "2025-12-09T20:37:09.561680+00:00", "meta": {"OBJECT_NAME": "FENGYUN 1C DEB", "OBJECT_ID": "1999-025VK", "EPOCH": "2025-12-09T05:24:36.594720", "MEAN_MOTION": 14.52267068, "ECCENTRICITY": 0.0039143, "INCLINATION": 98.6399, "RA_OF_ASC_NODE": 80.4121, "ARG_OF_PERICENTER": 69.8254, "MEAN_ANOMALY": 290.7144, "EPHEMERIS_TYPE": 0, "CLASSIFICATION_TYPE": "U", "NORAD_CAT_ID": 30202, "ELEMENT_SET_NO": 999, "REV_AT_EPOCH": 98238, "BSTAR": 0.0030178, "MEAN_MOTION_DOT": 0.00012355, "MEAN_MOTION_DDOT": 0}, "tle": {"line1": "1 30202U 99025VK  25343.22542355  .00012355  00000+0  30178-2 0  9993", "line2": "2 30202  98.6399  80.4121 0039143  69.8254 290.7144 14.52267068982381"}}, "geometry": {"type": "Point", "coordinates": [56.50590075111597, 69.90559710729643]}}, {"type": "Feature", "properties": {"norad_id": 30205, "name": "FENGYUN 1C DEB", "group": "fengyun-1c-debris", "lat": 67.52072597746955, "lon": 72.78406416958802, "alt_km": 969.9040742114448, "timestamp": "2025-12-09T20:37:09.561691+00:00", "meta": {"OBJECT_NAME": "FENGYUN 1C DEB", "OBJECT_ID": "1999-025VN", "EPOCH": "2025-12-09T13:40:52.256928", "MEAN_MOTION": 13.88037748, "ECCENTRICITY": 0.01209028, "INCLINATION": 98.9967, "RA_OF_ASC_NODE": 95.0163, "ARG_OF_PERICENTER": 188.3724, "MEAN_ANOMALY": 238.4288, "EPHEMERIS_TYPE": 0, "CLASSIFICATION_TYPE": "U", "NORAD_CAT_ID": 30205, "ELEMENT_SET_NO": 999, "REV_AT_EPOCH": 95594, "BSTAR": 0.0006206416, "MEAN_MOTION_DOT": 7.42e-06, "MEAN_MOTION_DDOT": 0}, "tle": {"line1": "1 30205U 99025VN  25343.57004927  .00000742  00000+0  62064-3 0  9999", "line2": "2 30205  98.9967  95.0163 0120902 188.3724 238.4288 13.88037748955947"}}, "geometry": {"type": "Point", "coordinates": [72.78406416958802, 67.52072597746955]}}, {"type": "Feature", "properties": {"norad_id": 30206, "name": "FENGYUN 1C DEB", "group": "fengyun-1c-debris", "lat": 81.45700666543709, "lon": -91.31896375784086, "alt_km": 643.8871041052762, "timestamp": "2025-12-09T20:37:09.561701+00:00", "meta": {"OBJECT_NAME": "FENGYUN 1C DEB", "OBJECT_ID": "1999-025VP", "EPOCH": "2025-12-09T10:17:02.210784", "MEAN_MOTION": 14.4913297, "ECCENTRICITY": 0.01461804, "INCLINATION": 98.2317, "RA_OF_ASC_NODE": 342.7706, "ARG_OF_PERICENTER": 46.4147, "MEAN_ANOMALY": 314.9073, "EPHEMERIS_TYPE": 0, "CLASSIFICATION_TYPE": "U", "NORAD_CAT_ID": 30206, "ELEMENT_SET_NO": 999, "REV_AT_EPOCH": 99353, "BSTAR": 0.00076066431, "MEAN_MOTION_DOT": 3.266e-05, "MEAN_MOTION_DDOT": 0}, "tle": {"line1": "1 30206U 99025VP  25343.42849781  .00003266  00000+0  76066-3 0  9990", "line2": "2 30206  98.2317 342.7706 0146180  46.4147 314.9073 14.49132970993534"}}, "geometry": {"type": "Point", "coordinates": [-91.31896375784086, 81.45700666543709]}}, {"type": "Feature", "properties": {"norad_id": 30207, "name": "FENGYUN 1C DEB", "group": "fengyun-1c-debris", "lat": 56.808294702663474, "lon": 81.49807360025616, "alt_km": 984.0877176928407, "timestamp": "2025-12-09T20:37:09.561712+00:00", "meta": {"OBJECT_NAME": "FENGYUN 1C DEB", "OBJECT_ID": "1999-025VQ", "EPOCH": "2025-12-09T06:40:40.107072", "MEAN_MOTION": 13.79132852, "ECCENTRICITY": 0.0260414, "INCLINATION": 98.5741, "RA_OF_ASC_NODE": 94.3052, "ARG_OF_PERICENTER": 157.7092, "MEAN_ANOMALY": 260.6111, "EPHEMERIS_TYPE": 0, "CLASSIFICATION_TYPE": "U", "NORAD_CAT_ID": 30207, "ELEMENT_SET_NO": 999, "REV_AT_EPOCH": 95015, "BSTAR": 0.00051608, "MEAN_MOTION_DOT": 6.44e-06, "MEAN_MOTION_DDOT": 0}, "tle": {"line1": "1 30207U 99025VQ  25343.27824198  .00000644  00000+0  51608-3 0  9991", "line2": "2 30207  98.5741  94.3052 0260414 157.7092 260.6111 13.79132852950157"}}, "geometry": {"type": "Point", "coordinates": [81.49807360025616, 56.808294702663474]}}]}